25417,ORBCOMM FM16,1998,100.2,-1.0,-,44.99,Inactive,0,LEO,Eastern Range Airspace,ORBCOMM,Unknown,Unknown,Unknown,1 25417U 98046E   24272.85761605  .00004388  00000+0  15094-2 0  9994,2 25417  44.9949 332.3927 0001812  33.3994 326.6968 14.37125413366637,14.37125413,0.0001812,LEO
25418,ORBCOMM FM15,1998,100.22,45.0,-,45.0,Inactive,1,LEO,Eastern Range Airspace,ORBCOMM,Commercial,Communications,Pegasus,1 25418U 98046F   24272.91246671  .00003649  00000+0  12715-2 0  9999,2 25418  44.9981 336.5452 0001337  36.3271 323.7667 14.36813451366646,14.36813451,0.0001337,LEO
25419,ORBCOMM FM14,1998,100.21,45.0,-,45.0,Inactive,1,LEO,Eastern Range Airspace,ORBCOMM,Commercial,Communications,Pegasus,1 25419U 98046G   24272.91724330  .00003696  00000+0  12809-2 0  9999,2 25419  44.9969 335.4067 0001193 333.2307  26.8479 14.37051150366601,14.3705115,0.0001193,LEO
25475,ORBCOMM FM21,1998,100.28,45.0,-,45.01,Inactive,1,LEO,Eastern Range Airspace,ORBCOMM,Commercial,Communications,Pegasus,1 25475U 98053A   24273.14109668  .00003076  00000+0  10968-2 0  9992,2 25475  45.0085  64.6505 0000643 218.6728 141.4074 14.36005787360034,14.36005787,6.43e-05,LEO
25476,ORBCOMM FM22,1998,100.23,-1.0,-,45.01,Inactive,0,LEO,Eastern Range Airspace,ORBCOMM,Unknown,Unknown,Unknown,1 25476U 98053B   24272.85191404  .00003921  00000+0  13661-2 0  9991,2 25476  45.0071  62.6572 0001384 315.2666  44.8070 14.36677918359660,14.36677918,0.0001384,LEO
25477,ORBCOMM FM23,1998,100.27,45.0,-,45.01,Inactive,1,LEO,Eastern Range Airspace,ORBCOMM,Commercial,Communications,Pegasus,1 25477U 98053C   24272.81685065  .00003725  00000+0  13164-2 0  9999,2 25477  45.0079  68.5585 0000811 296.1865  63.8899 14.36059851360112,14.36059851,8.11e-05,LEO
25416,ORBCOMM FM20,1998,100.29,45.0,+,45.0,Active,1,LEO,Eastern Range Airspace,ORBCOMM,Commercial,Communications,Pegasus,1 25416U 98046D   24272.86675152  .00002911  00000+0  10428-2 0  9991,2 25416  44.9955 337.7591 0001972 259.5392 100.5233 14.35896154366684,14.35896154,0.0001972,LEO
25420,ORBCOMM FM13,1998,100.27,45.0,+,45.0,Active,1,LEO,Eastern Range Airspace,ORBCOMM,Commercial,Communications,Pegasus,1 25420U 98046H   24272.90147975  .00003244  00000+0  11503-2 0  9993,2 25420  44.9985 341.2236 0002912  19.6333 340.4626 14.36171907365653,14.36171907,0.0002912,LEO
